[{"OBJECT_NAME":"STARLINK-3657","OBJECT_ID":"2022-025AL","EPOCH":"2026-03-09T06:46:29.624448","MEAN_MOTION":15.08838086,"ECCENTRICITY":0.00013489,"INCLINATION":53.219,"RA_OF_ASC_NODE":20.9482,"ARG_OF_PERICENTER":97.1378,"MEAN_ANOMALY":262.9768,"EPHEMERIS_TYPE":0,"CLASSIFICATION_TYPE":"U","NORAD_CAT_ID":51990,"ELEMENT_SET_NO":999,"REV_AT_EPOCH":22127,"BSTAR":1.6046334e-5,"MEAN_MOTION_DOT":-3.3e-7,"MEAN_MOTION_DDOT":0},{"OBJECT_NAME":"ARIANE 44P R\/B","OBJECT_ID":"1998-049B","EPOCH":"2026-03-09T10:15:23.288832","MEAN_MOTION":4.1818557,"ECCENTRICITY":0.5937682,"INCLINATION":4.1412,"RA_OF_ASC_NODE":47.0559,"ARG_OF_PERICENTER":279.1891,"MEAN_ANOMALY":21.9117,"EPHEMERIS_TYPE":0,"CLASSIFICATION_TYPE":"U","NORAD_CAT_ID":25461,"ELEMENT_SET_NO":999,"REV_AT_EPOCH":30032,"BSTAR":0.0024266,"MEAN_MOTION_DOT":0.00033468,"MEAN_MOTION_DDOT":0}]
